start=new Date('2021-12-12T00:00:00.000Z').valueOf();
sats=[{"REV_AT_EPOCH":"6341","MEAN_MOTION_DOT":"0.00000815","TLE_LINE2":"2 46681  53.0572  11.2682 0001539  55.4566 304.6568 15.06391397 63418","ECCENTRICITY":"0.00015390","TIME_SYSTEM":"UTC","MEAN_ELEMENT_THEORY":"SGP4","BSTAR":"0.00007361100000","EPOCH":"2021-12-11T11:41:30.791616","EPHEMERIS_TYPE":"0","FILE":"3237453","GP_ID":"191493531","PERIOD":"95.593","MEAN_MOTION_DDOT":"0.0000000000000","REF_FRAME":"TEME","TLE_LINE1":"1 46681U 20073M   21345.48716194  .00000815  00000-0  73611-4 0  9998","OBJECT_NAME":"STARLINK-1775","PERIAPSIS":"546.174","ARG_OF_PERICENTER":"55.4566","RCS_SIZE":"LARGE","INCLINATION":"53.0572","ELEMENT_SET_NO":"999","MEAN_MOTION":"15.06391397","OBJECT_ID":"2020-073M","CENTER_NAME":"EARTH","MEAN_ANOMALY":"304.6568","DECAY_DATE":null,"APOAPSIS":"548.306","SEMIMAJOR_AXIS":"6925.375","NORAD_CAT_ID":"46681","COUNTRY_CODE":"US","OBJECT_TYPE":"PAYLOAD","SITE":"AFETR","LAUNCH_DATE":"2020-10-18","RA_OF_ASC_NODE":"11.2682","CLASSIFICATION_TYPE":"U"},{"MEAN_MOTION_DDOT":"0.0000000000000","PERIOD":"95.593","REF_FRAME":"TEME","TLE_LINE1":"1 46682U 20073N   21345.91104583  .00000856  00000-0  76382-4 0  9993","OBJECT_NAME":"STARLINK-1776","PERIAPSIS":"546.153","RCS_SIZE":"LARGE","ARG_OF_PERICENTER":"57.1269","INCLINATION":"53.0545","REV_AT_EPOCH":"6348","MEAN_MOTION_DOT":"0.00000856","ECCENTRICITY":"0.00015830","TLE_LINE2":"2 46682  53.0545   9.3539 0001583  57.1269 302.9872 15.06388376 63485","BSTAR":"0.00007638200000","MEAN_ELEMENT_THEORY":"SGP4","TIME_SYSTEM":"UTC","EPHEMERIS_TYPE":"0","FILE":"3237650","EPOCH":"2021-12-11T21:51:54.359712","GP_ID":"191522009","NORAD_CAT_ID":"46682","OBJECT_TYPE":"PAYLOAD","COUNTRY_CODE":"US","LAUNCH_DATE":"2020-10-18","SITE":"AFETR","CLASSIFICATION_TYPE":"U","RA_OF_ASC_NODE":"9.3539","MEAN_MOTION":"15.06388376","ELEMENT_SET_NO":"999","CENTER_NAME":"EARTH","OBJECT_ID":"2020-073N","MEAN_ANOMALY":"302.9872","APOAPSIS":"548.345","DECAY_DATE":null,"SEMIMAJOR_AXIS":"6925.384"},{"BSTAR":"-0.00003726700000","MEAN_ELEMENT_THEORY":"SGP4","TIME_SYSTEM":"UTC","ECCENTRICITY":"0.00015390","TLE_LINE2":"2 46684  53.0542 355.0043 0001539  61.1264 298.9879 15.06395089 63677","MEAN_MOTION_DOT":"-0.00000836","REV_AT_EPOCH":"6367","GP_ID":"191522268","FILE":"3237650","EPHEMERIS_TYPE":"0","EPOCH":"2021-12-11T18:24:13.881312","TLE_LINE1":"1 46684U 20073Q   21345.76682733 -.00000836  00000-0 -37267-4 0  9995","REF_FRAME":"TEME","MEAN_MOTION_DDOT":"0.0000000000000","PERIOD":"95.592","INCLINATION":"53.0542","RCS_SIZE":"LARGE","ARG_OF_PERICENTER":"61.1264","PERIAPSIS":"546.163","OBJECT_NAME":"STARLINK-1780","CENTER_NAME":"EARTH","OBJECT_ID":"2020-073Q","ELEMENT_SET_NO":"999","MEAN_MOTION":"15.06395089","SEMIMAJOR_AXIS":"6925.364","APOAPSIS":"548.294","DECAY_DATE":null,"MEAN_ANOMALY":"298.9879","OBJECT_TYPE":"PAYLOAD","COUNTRY_CODE":"US","NORAD_CAT_ID":"46684","CLASSIFICATION_TYPE":"U","RA_OF_ASC_NODE":"355.0043","LAUNCH_DATE":"2020-10-18","SITE":"AFETR"},{"SITE":"AFETR","LAUNCH_DATE":"2020-10-18","RA_OF_ASC_NODE":"11.2345","CLASSIFICATION_TYPE":"U","NORAD_CAT_ID":"46685","COUNTRY_CODE":"US","OBJECT_TYPE":"PAYLOAD","MEAN_ANOMALY":"298.7021","SEMIMAJOR_AXIS":"6925.349","DECAY_DATE":null,"APOAPSIS":"548.308","CENTER_NAME":"EARTH","OBJECT_ID":"2020-073R","MEAN_MOTION":"15.06399856","ELEMENT_SET_NO":"999","PERIAPSIS":"546.120","OBJECT_NAME":"STARLINK-1781","INCLINATION":"53.0580","ARG_OF_PERICENTER":"61.4127","RCS_SIZE":"LARGE","REF_FRAME":"TEME","PERIOD":"95.592","MEAN_MOTION_DDOT":"0.0000000000000","TLE_LINE1":"1 46685U 20073R   21345.49084567  .00000905  00000-0  79667-4 0  9992","EPOCH":"2021-12-11T11:46:49.065888","EPHEMERIS_TYPE":"0","FILE":"3237453","GP_ID":"191493279","REV_AT_EPOCH":"6341","MEAN_MOTION_DOT":"0.00000905","TIME_SYSTEM":"UTC","MEAN_ELEMENT_THEORY":"SGP4","BSTAR":"0.00007966700000","TLE_LINE2":"2 46685  53.0580  11.2345 0001580  61.4127 298.7021 15.06399856 63418","ECCENTRICITY":"0.00015800"},{"OBJECT_TYPE":"PAYLOAD","COUNTRY_CODE":"US","NORAD_CAT_ID":"46686","CLASSIFICATION_TYPE":"U","RA_OF_ASC_NODE":"9.8336","LAUNCH_DATE":"2020-10-18","SITE":"AFETR","CENTER_NAME":"EARTH","OBJECT_ID":"2020-073S","ELEMENT_SET_NO":"999","MEAN_MOTION":"15.06390625","SEMIMAJOR_AXIS":"6925.377","APOAPSIS":"548.379","DECAY_DATE":null,"MEAN_ANOMALY":"302.1326","TLE_LINE1":"1 46686U 20073S   21345.80415682  .00001057  00000-0  89874-4 0  9994","REF_FRAME":"TEME","MEAN_MOTION_DDOT":"0.0000000000000","PERIOD":"95.593","INCLINATION":"53.0560","RCS_SIZE":"LARGE","ARG_OF_PERICENTER":"57.9822","PERIAPSIS":"546.106","OBJECT_NAME":"STARLINK-1783","MEAN_ELEMENT_THEORY":"SGP4","BSTAR":"0.00008987400000","TIME_SYSTEM":"UTC","ECCENTRICITY":"0.00016410","TLE_LINE2":"2 46686  53.0560   9.8336 0001641  57.9822 302.1326 15.06390625 63468","REV_AT_EPOCH":"6346","MEAN_MOTION_DOT":"0.00001057","GP_ID":"191521267","EPHEMERIS_TYPE":"0","FILE":"3237650","EPOCH":"2021-12-11T19:17:59.149248"},{"CLASSIFICATION_TYPE":"U","RA_OF_ASC_NODE":"336.6740","LAUNCH_DATE":"2020-10-18","SITE":"AFETR","OBJECT_TYPE":"PAYLOAD","COUNTRY_CODE":"US","NORAD_CAT_ID":"46687","SEMIMAJOR_AXIS":"6925.337","APOAPSIS":"548.577","DECAY_DATE":null,"MEAN_ANOMALY":"306.2066","CENTER_NAME":"EARTH","OBJECT_ID":"2020-073T","ELEMENT_SET_NO":"999","MEAN_MOTION":"15.06403748","INCLINATION":"53.0559","RCS_SIZE":"LARGE","ARG_OF_PERICENTER":"53.9106","PERIAPSIS":"545.827","OBJECT_NAME":"STARLINK-1784","TLE_LINE1":"1 46687U 20073T   21345.39270808  .00000629  00000-0  61113-4 0  9998","REF_FRAME":"TEME","MEAN_MOTION_DDOT":"0.0000000000000","PERIOD":"95.592","GP_ID":"191493782","EPHEMERIS_TYPE":"0","FILE":"3237453","EPOCH":"2021-12-11T09:25:29.978112","BSTAR":"0.00006111300000","MEAN_ELEMENT_THEORY":"SGP4","TIME_SYSTEM":"UTC","ECCENTRICITY":"0.00019850","TLE_LINE2":"2 46687  53.0559 336.6740 0001985  53.9106 306.2066 15.06403748 63893","MEAN_MOTION_DOT":"0.00000629","REV_AT_EPOCH":"6389"},{"SEMIMAJOR_AXIS":"6726.680","APOAPSIS":"353.975","DECAY_DATE":null,"MEAN_ANOMALY":"89.6769","OBJECT_ID":"2020-073U","CENTER_NAME":"EARTH","MEAN_MOTION":"15.73626396","ELEMENT_SET_NO":"999","CLASSIFICATION_TYPE":"U","RA_OF_ASC_NODE":"337.8650","LAUNCH_DATE":"2020-10-18","SITE":"AFETR","OBJECT_TYPE":"PAYLOAD","COUNTRY_CODE":"US","NORAD_CAT_ID":"46688","GP_ID":"191522761","FILE":"3237650","EPHEMERIS_TYPE":"0","EPOCH":"2021-12-11T22:58:18.889248","BSTAR":"0.00238190000000","MEAN_ELEMENT_THEORY":"SGP4","TIME_SYSTEM":"UTC","ECCENTRICITY":"0.00080730","TLE_LINE2":"2 46688  53.0559 337.8650 0008073 270.3324  89.6769 15.73626396 63936","MEAN_MOTION_DOT":"0.00355077","REV_AT_EPOCH":"6393","INCLINATION":"53.0559","RCS_SIZE":"LARGE","ARG_OF_PERICENTER":"270.3324","PERIAPSIS":"343.114","OBJECT_NAME":"STARLINK-1786","TLE_LINE1":"1 46688U 20073U   21345.95716307  .00355077  00000-0  23819-2 0  9999","REF_FRAME":"TEME","MEAN_MOTION_DDOT":"0.0000000000000","PERIOD":"91.508"},{"ELEMENT_SET_NO":"999","MEAN_MOTION":"15.06392076","OBJECT_ID":"2020-073V","CENTER_NAME":"EARTH","MEAN_ANOMALY":"293.7881","DECAY_DATE":null,"APOAPSIS":"548.365","SEMIMAJOR_AXIS":"6925.373","NORAD_CAT_ID":"46689","COUNTRY_CODE":"US","OBJECT_TYPE":"PAYLOAD","SITE":"AFETR","LAUNCH_DATE":"2020-10-18","RA_OF_ASC_NODE":"11.2839","CLASSIFICATION_TYPE":"U","MEAN_MOTION_DOT":"0.00000860","REV_AT_EPOCH":"6389","TLE_LINE2":"2 46689  53.0566  11.2839 0001627  66.3279 293.7881 15.06392076 63896","ECCENTRICITY":"0.00016270","TIME_SYSTEM":"UTC","MEAN_ELEMENT_THEORY":"SGP4","BSTAR":"0.00007667300000","EPOCH":"2021-12-11T11:36:12.377376","EPHEMERIS_TYPE":"0","FILE":"3237539","GP_ID":"191497728","PERIOD":"95.593","MEAN_MOTION_DDOT":"0.0000000000000","REF_FRAME":"TEME","TLE_LINE1":"1 46689U 20073V   21345.48347659  .00000860  00000-0  76673-4 0  9993","OBJECT_NAME":"STARLINK-1788","PERIAPSIS":"546.111","ARG_OF_PERICENTER":"66.3279","RCS_SIZE":"LARGE","INCLINATION":"53.0566"},{"COUNTRY_CODE":"US","OBJECT_TYPE":"PAYLOAD","NORAD_CAT_ID":"46690","RA_OF_ASC_NODE":"344.4754","CLASSIFICATION_TYPE":"U","SITE":"AFETR","LAUNCH_DATE":"2020-10-18","CENTER_NAME":"EARTH","OBJECT_ID":"2020-073W","MEAN_MOTION":"15.06415348","ELEMENT_SET_NO":"999","SEMIMAJOR_AXIS":"6925.302","DECAY_DATE":null,"APOAPSIS":"548.224","MEAN_ANOMALY":"296.3643","TLE_LINE1":"1 46690U 20073W   21345.88202100  .00002532  00000-0  18877-3 0  9999","REF_FRAME":"TEME","PERIOD":"95.591","MEAN_MOTION_DDOT":"0.0000000000000","INCLINATION":"53.0552","ARG_OF_PERICENTER":"63.7503","RCS_SIZE":"LARGE","PERIAPSIS":"546.109","OBJECT_NAME":"STARLINK-1789","TIME_SYSTEM":"UTC","BSTAR":"0.00018877000000","MEAN_ELEMENT_THEORY":"SGP4","TLE_LINE2":"2 46690  53.0552 344.4754 0001527  63.7503 296.3643 15.06415348 63826","ECCENTRICITY":"0.00015270","MEAN_MOTION_DOT":"0.00002532","REV_AT_EPOCH":"6382","GP_ID":"191521760","EPOCH":"2021-12-11T21:10:06.614400","FILE":"3237650","EPHEMERIS_TYPE":"0"},{"MEAN_MOTION_DOT":"-0.00000911","REV_AT_EPOCH":"6366","TIME_SYSTEM":"UTC","MEAN_ELEMENT_THEORY":"SGP4","BSTAR":"-0.00004225800000","TLE_LINE2":"2 46691  53.0567 355.0938 0001527  55.1914 304.9219 15.06391763 63667","ECCENTRICITY":"0.00015270","EPOCH":"2021-12-11T17:57:41.831712","FILE":"3237650","EPHEMERIS_TYPE":"0","GP_ID":"191522010","REF_FRAME":"TEME","PERIOD":"95.593","MEAN_MOTION_DDOT":"0.0000000000000","TLE_LINE1":"1 46691U 20073X   21345.74840083 -.00000911  00000-0 -42258-4 0  9995","PERIAPSIS":"546.181","OBJECT_NAME":"STARLINK-1790","INCLINATION":"53.0567","ARG_OF_PERICENTER":"55.1914","RCS_SIZE":"LARGE","OBJECT_ID":"2020-073X","CENTER_NAME":"EARTH","ELEMENT_SET_NO":"999","MEAN_MOTION":"15.06391763","MEAN_ANOMALY":"304.9219","SEMIMAJOR_AXIS":"6925.374","DECAY_DATE":null,"APOAPSIS":"548.296","NORAD_CAT_ID":"46691","COUNTRY_CODE":"US","OBJECT_TYPE":"PAYLOAD","SITE":"AFETR","LAUNCH_DATE":"2020-10-18","RA_OF_ASC_NODE":"355.0938","CLASSIFICATION_TYPE":"U"}];
